[
    {
        "name": "7-Eleven S06 Shophouse Saigon Pearl",
        "phone": "0965240711",
        "email": "cskh@7-eleven.vn",
        "opening_hours": "24/7",
        "is_active": true,
        "rating": 4.3,
        "latitude": 10.790590819804223,
        "longitude": 106.71892466752884
    },
    {
        "name": "7-Eleven 23 Tôn Thất Tùng",
        "phone": "0867708711",
        "email": "cskh@7-eleven.vn",
        "opening_hours": "24/7",
        "is_active": true,
        "rating": 4.2,
        "latitude": 10.770593607194511,
        "longitude": 106.68799288287074
    },
    {
        "name": "7-Eleven The Tresor",
        "phone": "+84 966 272 711",
        "email": "cskh@7-eleven.vn",
        "opening_hours": "Open 24 hours (Monday-Sunday)",
        "is_active": true,
        "rating": 4.5,
        "latitude": 10.766571689105435,
        "longitude": 106.70335508287074
    },
    {
        "name": "7-Eleven 21B Hậu Giang",
        "phone": "+84 28 7300 7711",
        "email": "cskh@7-eleven.vn",
        "opening_hours": "Open 24 hours (Monday-Sunday)",
        "is_active": true,
        "rating": 4.2,
        "latitude": 10.807778854572735,
        "longitude": 106.66354812393111
    },
    {
        "name": "7-Eleven - Intel Campus",
        "phone": "+84 869 678 711",
        "email": "cskh@7-eleven.vn",
        "opening_hours": "Open 24 hours (Monday-Sunday)",
        "is_active": true,
        "rating": 4.5,
        "latitude": 10.85393218453193,
        "longitude": 106.79784465403597
    },
    {
        "name": "7-Eleven Bệnh Viện Chợ Rẫy",
        "phone": "+84 869 000 711",
        "email": "cskh@7-eleven.vn",
        "opening_hours": "Open 24 hours (Monday-Sunday)",
        "is_active": true,
        "rating": 4.3,
        "latitude": 10.756793431129207,
        "longitude": 106.66068431500966
    },
    {
        "name": "7-Eleven - Vinhomes Central Park, Tòa Park 3",
        "phone": "+84 989 155 711",
        "email": "cskh@7-eleven.vn",
        "opening_hours": "Open 24 hours (Monday-Sunday)",
        "is_active": true,
        "rating": 4.4,
        "latitude": 10.792366485736622,
        "longitude": 106.72295426400504
    },
    {
        "name": "7-Eleven L1-SH01.A Vinhomes Central Park",
        "phone": "+84 989 155 711",
        "email": "cskh@7-eleven.vn",
        "opening_hours": "Open 24 hours (Monday-Sunday)",
        "is_active": true,
        "rating": 4.4,
        "latitude": 10.795306870884476,
        "longitude": 106.72217105901173
    },
    {
        "name": "7-Eleven Hoàng Anh Goldhouse",
        "phone": "+84 965 871 711",
        "email": "cskh@7-eleven.vn",
        "opening_hours": "Open 24 hours (Monday-Sunday)",
        "is_active": true,
        "rating": 4.7,
        "latitude": 10.711255755522695,
        "longitude": 106.70451471855986
    },
    {
        "name": "7-Eleven L6-SH02 Lux6 Vinhomes Golden River",
        "phone": "",
        "email": "cskh@7-eleven.vn",
        "opening_hours": "Open 24 hours (Monday-Sunday)",
        "is_active": true,
        "rating": 4.5,
        "latitude": 10.786801035405503,
        "longitude": 106.71012868287097
    },
    {
        "name": "MINISTOP - Lam Son",
        "phone": "+84 28 3547 0449",
        "email": null,
        "opening_hours": null,
        "is_active": true,
        "rating": 3.0,
        "latitude": 10.810210435123027,
        "longitude": 106.66664759451584
    },
    {
        "name": "MINISTOP - D2",
        "phone": "",
        "email": null,
        "opening_hours": null,
        "is_active": true,
        "rating": 2.7,
        "latitude": 10.805390798240087,
        "longitude": 106.71578908102242
    },
    {
        "name": "MINISTOP - Nguyen Hong Dao",
        "phone": "",
        "email": null,
        "opening_hours": "Open 24 hours (Monday-Sunday)",
        "is_active": true,
        "rating": 3.3,
        "latitude": 10.793097940746012,
        "longitude": 106.64218295403553
    },
    {
        "name": "MINISTOP - Bach Dang",
        "phone": "+84 28 3547 1213",
        "email": null,
        "opening_hours": "Open 24 hours (Monday-Sunday)",
        "is_active": true,
        "rating": 2.8,
        "latitude": 10.81057,
        "longitude": 106.67812
    },
    {
        "name": "MINISTOP - Tran Thien Chanh",
        "phone": "+84 28 3868 4543",
        "email": null,
        "opening_hours": "Open 24 hours (Monday-Sunday)",
        "is_active": true,
        "rating": 1.8,
        "latitude": 10.771705965870225,
        "longitude": 106.67053492335106
    },
    {
        "name": "MINISTOP - Tran Doan Khanh",
        "phone": "+84 28 3910 1233",
        "email": null,
        "opening_hours": "Open 24 hours (Monday-Sunday)",
        "is_active": true,
        "rating": 3.1,
        "latitude": 10.788761742118202,
        "longitude": 106.6977178098578
    },
    {
        "name": "MINISTOP - Nguyen Thuong Hien",
        "phone": "+84 28 3515 0783",
        "email": null,
        "opening_hours": "Open 24 hours (Monday-Sunday)",
        "is_active": true,
        "rating": 3.0,
        "latitude": 10.80596601385641,
        "longitude": 106.68587803869347
    },
    {
        "name": "MINISTOP - Do Thanh",
        "phone": "+84 28 3834 1749",
        "email": null,
        "opening_hours": "Open 24 hours (Monday-Sunday)",
        "is_active": true,
        "rating": 2.6,
        "latitude": 10.772734300536886,
        "longitude": 106.6810809866442
    },
    {
        "name": "MINISTOP - Hoa Hung",
        "phone": "+84 28 3979 8978",
        "email": null,
        "opening_hours": "Open 24 hours (Monday-Sunday)",
        "is_active": true,
        "rating": 2.6,
        "latitude": 10.779055324261144,
        "longitude": 106.67400239636433
    },
    {
        "name": "MINISTOP - Hoang Hoa Tham",
        "phone": "+84 28 3510 1677",
        "email": null,
        "opening_hours": "Open 24 hours (Monday-Sunday)",
        "is_active": true,
        "rating": 2.0,
        "latitude": 10.804833226234283,
        "longitude": 106.6915974643438
    },
    {
        "name": "WinMart Jamila Khang Điền",
        "phone": "+842471066866",
        "email": null,
        "opening_hours": "8:00 AM-10:00 PM (Monday-Sunday)",
        "is_active": true,
        "rating": 5.0,
        "latitude": 10.795827185195739,
        "longitude": 106.78469874054217
    },
    {
        "name": "WinMart Chung cư An Cư",
        "phone": "+84 24 7106 6866",
        "email": null,
        "opening_hours": "8:00 AM-10:00 PM (Monday-Sunday)",
        "is_active": true,
        "rating": 5.0,
        "latitude": 10.793611286406577,
        "longitude": 106.7396491037592
    },
    {
        "name": "WinMart+ 185B Nguyễn Thị Định",
        "phone": "+84 24 7106 6866",
        "email": null,
        "opening_hours": "8:00 AM-10:00 PM (Monday-Sunday)",
        "is_active": true,
        "rating": 4.4,
        "latitude": 10.790679754554237,
        "longitude": 106.75400139636436
    },
    {
        "name": "WIN 81 đường số 2",
        "phone": "+84 24 7106 6866",
        "email": null,
        "opening_hours": "8:00 AM-10:00 PM (Monday-Sunday)",
        "is_active": true,
        "rating": 3.8,
        "latitude": 10.83904407535417,
        "longitude": 106.71932223684502
    },
    {
        "name": "WinMart+ 120 Lò Lu",
        "phone": "+84 24 7106 6866",
        "email": null,
        "opening_hours": "8:00 AM-10:00 PM (Monday-Sunday)",
        "is_active": true,
        "rating": 5.0,
        "latitude": 10.826531830146996,
        "longitude": 106.81876936937782
    },
    {
        "name": "WinMart+ Thủ Thiêm Garden",
        "phone": "+84 24 7106 6866",
        "email": null,
        "opening_hours": "8:00 AM-10:00 PM (Monday-Sunday)",
        "is_active": true,
        "rating": 5.0,
        "latitude": 10.807454721620681,
        "longitude": 106.78942491355531
    },
    {
        "name": "WinMart Quang Trung",
        "phone": "+84 24 7106 6866",
        "email": null,
        "opening_hours": "8:00 AM-10:00 PM (Monday-Sunday)",
        "is_active": true,
        "rating": 4.2,
        "latitude": 10.829414555849535,
        "longitude": 106.67251392335159
    },
    {
        "name": "WinMart Bàu Cát",
        "phone": "+84 559 701 527",
        "email": null,
        "opening_hours": "7:00 AM-10:00 PM (Monday-Sunday)",
        "is_active": true,
        "rating": 4.1,
        "latitude": 10.786578087431346,
        "longitude": 106.64523018684466
    },
    {
        "name": "WinMart Phan Văn Trị",
        "phone": "+84 906 854 823",
        "email": null,
        "opening_hours": "10:00 AM-10:00 PM (Monday-Friday), 9:30 AM-10:00 PM (Saturday-Sunday)",
        "is_active": true,
        "rating": 4.3,
        "latitude": 10.831647167747375,
        "longitude": 106.67974858102251
    },
    {
        "name": "WinMart Lê Văn Việt",
        "phone": "",
        "email": null,
        "opening_hours": "7:00 AM-10:00 PM (Monday-Saturday), 7:30 AM-10:00 PM (Sunday)",
        "is_active": true,
        "rating": 4.2,
        "latitude": 10.844590206459326,
        "longitude": 106.77840914925339
    },
    {
        "name": "Circle K 124 Pho Quang",
        "phone": "+84 28 3997 6065",
        "email": null,
        "opening_hours": "Open 24 hours (Monday-Sunday)",
        "is_active": true,
        "rating": 2.9,
        "latitude": 10.810580992847706,
        "longitude": 106.67221628030521
    },
    {
        "name": "Circle K 106 Hoang Dieu",
        "phone": "+84 1900 3110",
        "email": null,
        "opening_hours": "Open 24 hours (Monday-Sunday)",
        "is_active": true,
        "rating": 3.8,
        "latitude": 10.764101572812415,
        "longitude": 106.70416903444315
    },
    {
        "name": "Circle K S02.BS07. Vinhome Grand Park",
        "phone": "+84 1900 3110",
        "email": null,
        "opening_hours": "Open 24 hours (Monday-Sunday)",
        "is_active": true,
        "rating": 3.8,
        "latitude": 10.845926306372613,
        "longitude": 106.83659229599469
    },
    {
        "name": "Circle K S1.11. BS10",
        "phone": "",
        "email": null,
        "opening_hours": "Open 24 hours (Monday-Sunday)",
        "is_active": true,
        "rating": 4.2,
        "latitude": 10.847014869450422,
        "longitude": 106.84269550985812
    },
    {
        "name": "Circle K 139 Hai Ba Trung",
        "phone": null,
        "email": null,
        "opening_hours": "Open 24 hours (Monday-Sunday)",
        "is_active": true,
        "rating": 2.3,
        "latitude": 10.783260337766084,
        "longitude": 106.69773848656835
    },
    {
        "name": "Circle K 944 Le Van Luong",
        "phone": null,
        "email": null,
        "opening_hours": "Open 24 hours (Monday-Sunday)",
        "is_active": true,
        "rating": 4.0,
        "latitude": 10.709525870685049,
        "longitude": 106.70239585403475
    },
    {
        "name": "Circle K 92B Hoa Binh",
        "phone": "+84 1900 3110",
        "email": null,
        "opening_hours": "Open 24 hours (Monday-Sunday)",
        "is_active": true,
        "rating": 3.5,
        "latitude": 10.769293241150693,
        "longitude": 106.63789803205736
    },
    {
        "name": "FamilyMart - Sài Gòn Sky Garden",
        "phone": null,
        "email": null,
        "opening_hours": "Open 24 hours (Monday-Sunday)",
        "is_active": true,
        "rating": 3.6,
        "latitude": 10.78134698391957,
        "longitude": 106.70491915403538
    },
    {
        "name": "FamilyMart - 138 Lý Chính Thắng",
        "phone": null,
        "email": null,
        "opening_hours": "Mở cửa cả ngày (Thứ Hai-Chủ Nhật)",
        "is_active": true,
        "rating": 3.4,
        "latitude": 10.787535281745559,
        "longitude": 106.68471936752894
    },
    {
        "name": "FamilyMart - 58 Pasteur",
        "phone": null,
        "email": null,
        "opening_hours": "Mở cửa cả ngày (Thứ Hai-Chủ Nhật)",
        "is_active": true,
        "rating": 3.0,
        "latitude": 10.771735086262757, 
        "longitude": 106.70221733499572
    },
    {
        "name": "FamilyMart - Nguyễn Khắc Nhu",
        "phone": "+84 28 3930 5180",
        "email": null,
        "opening_hours": "Mở cửa cả ngày (Thứ Hai-Chủ Nhật)",
        "is_active": true,
        "rating": 2.8,
        "latitude": 10.7638147702128, 
        "longitude": 106.69323081170637
    },
    {
        "name": "FamilyMart - 259 Hòa Hảo",
        "phone": null,
        "email": null,
        "opening_hours": "Mở cửa cả ngày (Thứ Hai-Chủ Nhật)",
        "is_active": true,
        "rating": 4.8,
        "latitude": 10.762290590606627, 
        "longitude": 106.67001469451543
    },
    {
        "name": "FamilyMart - Tôn Đản",
        "phone": null,
        "email": null,
        "opening_hours": null,
        "is_active": true,
        "rating": 3.7,
        "latitude": 10.761584193065772, 
        "longitude": 106.70708232973418
    },
    {
        "name": "FamilyMart - 629 Bình Thới",
        "phone": null,
        "email": null,
        "opening_hours": "Mở cửa cả ngày (Thứ Hai-Chủ Nhật)",
        "is_active": true,
        "rating": 5.0,
        "latitude": 10.762843750309132, 
        "longitude": 106.6422770521867
    },
    {
        "name": "FamilyMart - Nguyễn Thái Sơn",
        "phone": null,
        "email": null,
        "opening_hours": "Mở cửa cả ngày (Thứ Hai-Chủ Nhật)",
        "is_active": true,
        "rating": 3.4,
        "latitude": 10.828449559379775, 
        "longitude": 106.69059798725918
    },
    {
        "name": "FamilyMart - BS10 - The Tropical",
        "phone": null,
        "email": null,
        "opening_hours": "Mở cửa cả ngày (Thứ Hai-Chủ Nhật)",
        "is_active": true,
        "rating": 2.9,
        "latitude": 10.84679576362063, 
        "longitude": 106.84290169451616
    },
    {
        "name": "GS25 Trần Nhật Duật - Quận 1",
        "phone": null,
        "email": "hello@gs25.com.vn",
        "opening_hours": null,
        "is_active": true,
        "rating": 3.0,
        "latitude": 10.794161898126003, 
        "longitude": 106.68945723021031
    },
    {
        "name": "GS25 Trần Quang Khải - Quận 1",
        "phone": null,
        "email": "hello@gs25.com.vn",
        "opening_hours": "T2-CN: 10:38–22:00",
        "is_active": true,
        "rating": 2.0,
        "latitude": 10.792510248804556, 
        "longitude": 106.69232905218676
    },
    {
        "name": "GS25 172 Lý Tự Trọng",
        "phone": null,
        "email": "hello@gs25.com.vn",
        "opening_hours": "Mở cửa cả ngày (Thứ Hai-Chủ Nhật)",
        "is_active": true,
        "rating": 3.3,
        "latitude": 10.773318766213796, 
        "longitude": 106.69582471170635
    },
    {
        "name": "GS25 254 Hai Bà Trưng",
        "phone": null,
        "email": "hello@gs25.com.vn",
        "opening_hours": null,
        "is_active": true,
        "rating": 3.8,
        "latitude": 10.788838132262006, 
        "longitude": 106.69105038788102
    },
    {
        "name": "GS25 Phan Chu Trinh - Quận 1",
        "phone": null,
        "email": "hello@gs25.com.vn",
        "opening_hours": "Mở cửa cả ngày (Thứ Hai-Chủ Nhật)",
        "is_active": true,
        "rating": 3.5,
        "latitude": 10.772719503838735, 
        "longitude": 106.69717962704841
    },
    {
        "name": "GS25 Trần Cao Vân – Quận 3",
        "phone": null,
        "email": "hello@gs25.com.vn",
        "opening_hours": null,
        "is_active": true,
        "rating": 3.1,
        "latitude": 10.78328955896416, 
        "longitude": 106.69617038102218
    },
    {
        "name": "GS25 598 CMT8 – Quận 3",
        "phone": null,
        "email": "hello@gs25.com.vn",
        "opening_hours": "Mở cửa cả ngày (Thứ Hai-Chủ Nhật)",
        "is_active": true,
        "rating": 2.0,
        "latitude": 10.786581010447279, 
        "longitude": 106.66582154534478
    },
    {
        "name": "GS25 More Building – Quận 3",
        "phone": null,
        "email": "hello@gs25.com.vn",
        "opening_hours": "Mở cửa cả ngày (Thứ Hai-Chủ Nhật)",
        "is_active": true,
        "rating": 2.1,
        "latitude": 10.785676339620256, 
        "longitude": 106.66754443684464
    },
    {
        "name": "Bách hóa XANH Đề Thám",
        "phone": "+84 1900 1908",
        "email": null,
        "opening_hours": "06:30–21:30 (Thứ Hai-Chủ Nhật)",
        "is_active": true,
        "rating": 4.0,
        "latitude": 10.765854589377238, 
        "longitude": 106.69477770985772
    },
    {
        "name": "Bách hóa XANH 60 Đường 39",
        "phone": "+84 1900 1908",
        "email": null,
        "opening_hours": "06:30–21:30 (Thứ Hai-Chủ Nhật)",
        "is_active": true,
        "rating": 4.0,
        "latitude": 10.783385480132633, 
        "longitude": 106.76533633869327
    },
    {
        "name": "Bách hóa XANH Lý Thái Tổ",
        "phone": "+84 1900 1908",
        "email": null,
        "opening_hours": "06:30–21:30 (Thứ Hai-Chủ Nhật)",
        "is_active": true,
        "rating": 4.4,
        "latitude": 10.767999342216266, 
        "longitude": 106.67713736181572
    },
    {
        "name": "Bách hóa XANH 49A Huỳnh Tịnh Của",
        "phone": "+84 1900 1908",
        "email": null,
        "opening_hours": "06:30–21:30 (Thứ Hai-Chủ Nhật)",
        "is_active": true,
        "rating": 4.0,
        "latitude": 10.789472633623859, 
        "longitude": 106.68732954054212
    },
    {
        "name": "Bách hóa XANH Hoà Hưng",
        "phone": "+84 1900 1908",
        "email": null,
        "opening_hours": "06:30–21:30 (Thứ Hai-Chủ Nhật)",
        "is_active": true,
        "rating": 4.2,
        "latitude": 10.779182121879339, 
        "longitude": 106.67425139821303
    },
    {
        "name": "Bách Hóa Xanh Xóm Chiếu",
        "phone": "+84 1900 1908",
        "email": null,
        "opening_hours": "06:30–21:30 (Thứ Hai-Chủ Nhật)",
        "is_active": true,
        "rating": 4.3,
        "latitude": 10.758176015552054, 
        "longitude": 106.71065409266683
    },
    {
        "name": "Bách hóa XANH Vĩnh Hội",
        "phone": "+84 1900 1908",
        "email": null,
        "opening_hours": "06:30–21:30 (Thứ Hai-Chủ Nhật)",
        "is_active": true,
        "rating": 4.0,
        "latitude": 10.756258275068761, 
        "longitude": 106.70480172519959
    },
    {
        "name": "Bách hóa XANH 25 Nguyễn Khoái",
        "phone": "+84 1900 1908",
        "email": null,
        "opening_hours": "06:30–21:30 (Thứ Hai-Chủ Nhật)",
        "is_active": true,
        "rating": 4.1,
        "latitude": 10.75383767023161, 
        "longitude": 106.69478529266682
    },
    {
        "name": "Co.opXtra Linh Trung - Thủ Đức",
        "phone": "(028) 3724 3252",
        "email": "xlinhtrung-marketing@saigonco-op.com.vn",
        "opening_hours": "07:30–22:00 (Thứ Hai-Chủ Nhật)",
        "is_active": true,
        "rating": 4.4,
        "latitude": 10.868440053209346, 
        "longitude": 106.77668456937813
    },
    {
        "name": "Co.opXtra Tân Phong - Quận 7",
        "phone": "(028) 3776 1234",
        "email": "xtanphong-marketing@saigonco-op.com.vn",
        "opening_hours": "07:30–22:00 (Thứ Hai-Chủ Nhật)",
        "is_active": true,
        "rating": 4.2,
        "latitude": 10.729801178209655, 
        "longitude": 106.70405656937714
    },
    {
        "name": "Co.opXtra Vạn Hạnh - Quận 10",
        "phone": "(028) 3979 8581",
        "email": "xvanhanh-mkt@saigonco-op.com.vn",
        "opening_hours": "07:30–22:00 (Thứ Hai-Chủ Nhật)",
        "is_active": true,
        "rating": 4.4,
        "latitude": 10.77126296613419, 
        "longitude": 106.66951880985758
    },
    {
        "name": "Co.opXtra Phạm Văn Đồng - Thủ Đức",
        "phone": "(028) 3622 2101",
        "email": "xphamvandong-mkt@saigonco-op.com.vn",
        "opening_hours": "07:30–22:00 (Thứ Hai-Chủ Nhật)",
        "is_active": true,
        "rating": 3.4,
        "latitude": 10.82804630785138, 
        "longitude": 106.72179799451605
    },
    {
        "name": "Co.opXtra Tạ Quang Bửu - Quận 8",
        "phone": "+84 1900 555568",
        "email": "xtaquangbuu-mkt@saigonco-op.com.vn",
        "opening_hours": "07:30–22:00 (Thứ Hai-Chủ Nhật)",
        "is_active": true,
        "rating": 4.2,
        "latitude": 10.736727889416905, 
        "longitude": 106.66935267122584
    },
    {
        "name": "Co.opXtra Long Bình - Vinhomes Grand Park - Thủ Đức",
        "phone": null,
        "email": "xlongbinh-mkt@saigonco-op.com.vn",
        "opening_hours": "07:30–22:00 (Thứ Hai-Chủ Nhật)",
        "is_active": true,
        "rating": 3.0,
        "latitude": 10.843265424830081, 
        "longitude": 106.84247328102262
    },
    {
        "name": "Satrafoods LÊ THỊ RIÊNG",
        "phone": "091.529.1311",
        "email": null,
        "opening_hours": "06:00–21:00 (Thứ Hai-Chủ Nhật)",
        "is_active": true,
        "rating": 3.9,
        "latitude": 10.771638726111682, 
        "longitude": 106.69287214054194
    },
    {
        "name": "Satrafoods LÊ THÁNH TÔN",
        "phone": "(028) 3827 5358",
        "email": null,
        "opening_hours": "08:00–22:00 (Thứ Hai-Chủ Nhật)",
        "is_active": true,
        "rating": 4.0,
        "latitude": 10.772984967609665, 
        "longitude": 106.69680098287088
    },
    {
        "name": "Satrafoods ĐINH TIÊN HOÀNG",
        "phone": "(028) 3820 0226",
        "email": null,
        "opening_hours": "06:00–21:00 (Thứ Hai-Chủ Nhật)",
        "is_active": true,
        "rating": 3.9,
        "latitude": 10.791528988666467, 
        "longitude": 106.69635239821304
    },
    {
        "name": "Satrafoods NGUYỄN DUY TRINH",
        "phone": "18001191",
        "email": null,
        "opening_hours": "06:00–21:00 (Thứ Hai-Chủ Nhật)",
        "is_active": true,
        "rating": 4.0,
        "latitude": 10.789620973405633, 
        "longitude": 106.76190822189302
    },
    {
        "name": "Satrafoods NGUYỄN THỊ ĐỊNH",
        "phone": "(028) 3742 3454",
        "email": null,
        "opening_hours": "06:00–21:00 (Thứ Hai-Chủ Nhật)",
        "is_active": true,
        "rating": 4.0,
        "latitude": 10.782909604568388, 
        "longitude": 106.75862316752891
    },
    {
        "name": "Satrafoods NGUYỄN DUY TRINH 2",
        "phone": "(028) 3743 8004",
        "email": null,
        "opening_hours": "06:00–21:00 (Thứ Hai-Chủ Nhật)",
        "is_active": true,
        "rating": 4.2,
        "latitude": 10.790332519903956, 
        "longitude": 106.78033223684444
    },
    {
        "name": "Satrafoods NGUYỄN THỊ ĐỊNH 2",
        "phone": "(028) 3742 3454",
        "email": null,
        "opening_hours": "06:00–21:00 (Thứ Hai-Chủ Nhật)",
        "is_active": true,
        "rating": 4.0,
        "latitude": 10.79123248630166, 
        "longitude": 106.75415599904998
    },
    {
        "name": "Satrafoods VÕ VĂN TẦN",
        "phone": "(028) 3832 9777",
        "email": null,
        "opening_hours": "07:00–21:00 (Thứ Hai-Chủ Nhật)",
        "is_active": true,
        "rating": 3.6,
        "latitude": 10.769735706909751, 
        "longitude": 106.68396079821285
    },
    {
        "name": "Satrafoods ĐIỆN BIÊN PHỦ",
        "phone": "(028) 3830 8818",
        "email": null,
        "opening_hours": "06:00–21:00 (Thứ Hai-Chủ Nhật)",
        "is_active": true,
        "rating": 4.0,
        "latitude": 10.76917970842679, 
        "longitude": 106.67554952519977
    },
    {
        "name": "Satrafoods ĐƯỜNG SỐ 41",
        "phone": "(028) 3826 6572",
        "email": null,
        "opening_hours": "06:00–21:00 (Thứ Hai-Chủ Nhật)",
        "is_active": true,
        "rating": 3.9,
        "latitude": 10.758897251554492, 
        "longitude": 106.70114088471931
    },
    {
        "name": "Satrafoods LÊ VĂN LINH",
        "phone": "(028) 6261 6402",
        "email": null,
        "opening_hours": "06:00–21:00 (Thứ Hai-Chủ Nhật)",
        "is_active": true,
        "rating": 3.5,
        "latitude": 10.763955130419758, 
        "longitude": 106.70657332335104
    },
    {
        "name": "Satrafoods ĐỖ XUÂN HỢP 2",
        "phone": "(028) 3728 2338",
        "email": null,
        "opening_hours": "06:00–21:00 (Thứ Hai-Chủ Nhật)",
        "is_active": true,
        "rating": 3.9,
        "latitude": 10.831522205524596, 
        "longitude": 106.76779166568049
    },
    {
        "name": "Satrafoods TÂY HÒA",
        "phone": "(028) 3731 1322",
        "email": null,
        "opening_hours": "06:00–21:00 (Thứ Hai-Chủ Nhật)",
        "is_active": true,
        "rating": 4.2,
        "latitude": 10.826312457489292, 
        "longitude": 106.76334661170672
    },
    {
        "name": "Satrafoods ĐÌNH PHONG PHÚ",
        "phone": null,
        "email": null,
        "opening_hours": "06:00–21:00 (Thứ Hai-Chủ Nhật)",
        "is_active": true,
        "rating": 4.7,
        "latitude": 10.83425772800075, 
        "longitude": 106.78321636200053
    },
    {
        "name": "Satrafoods DƯƠNG ĐÌNH HỘI",
        "phone": "(028) 3620 3565",
        "email": null,
        "opening_hours": "06:00–21:00 (Thứ Hai-Chủ Nhật)",
        "is_active": true,
        "rating": 4.1,
        "latitude": 10.819050695231468, 
        "longitude": 106.77720156123986
    },
    {
        "name": "Satrafoods LÒ LU",
        "phone": null,
        "email": null,
        "opening_hours": "07:30–22:00 (Thứ Hai-Chủ Nhật)",
        "is_active": true,
        "rating": 4.5,
        "latitude": 10.82608846509815, 
        "longitude": 106.81738486937775
    },
    {
        "name": "Satrafoods ĐÌNH PHONG PHÚ 2",
        "phone": null,
        "email": null,
        "opening_hours": null,
        "is_active": true,
        "rating": 4.6,
        "latitude": 10.834152390948457, 
        "longitude": 106.78287835403567
    },
    {
        "name": "Satrafoods DƯƠNG ĐÌNH HỘI 2",
        "phone": "091.294.3131",
        "email": null,
        "opening_hours": "06:30–18:00 (Thứ Hai-Chủ Nhật)",
        "is_active": true,
        "rating": 5.0,
        "latitude": 10.825616357857154, 
        "longitude": 106.77992799451594
    },
    {
        "name": "Satrafoods NGUYỄN XIỂN",
        "phone": null,
        "email": null,
        "opening_hours": "06:00–21:00 (Thứ Hai-Chủ Nhật)",
        "is_active": true,
        "rating": 4.6,
        "latitude": 10.848420171590822, 
        "longitude": 106.83158104054247
    },
    {
        "name": "Satrafoods MAN THIỆN",
        "phone": "(028) 3636 9423",
        "email": null,
        "opening_hours": "06:00–17:00 (Thứ Hai-Chủ Nhật)",
        "is_active": true,
        "rating": 5.0,
        "latitude": 10.848021694469432, 
        "longitude": 106.7872179540358
    },
    {
        "name": "Satrafoods XÔ VIẾT NGHỆ TĨNH",
        "phone": null,
        "email": null,
        "opening_hours": null,
        "is_active": true,
        "rating": 4.3,
        "latitude": 10.799588120363909, 
        "longitude": 106.71046806149307
    },
    {
        "name": "MINISTOP - Binh Thoi",
        "phone": "(028) 3510 6870",
        "email": null,
        "opening_hours": "Mở cửa cả ngày (Thứ Hai-Chủ Nhật)",
        "is_active": true,
        "rating": 2.5,
        "latitude": 10.767627135050523, 
        "longitude": 106.64957226697598
    },
    {
        "name": "FamilyMart - 249A Hoàng Văn Thụ",
        "phone": null,
        "email": null,
        "opening_hours": "Mở cửa cả ngày (Thứ Hai-Chủ Nhật)",
        "is_active": true,
        "rating": 4.2,
        "latitude": 10.800206444525966, 
        "longitude": 106.66545612335138
    },
    {
        "name": "FamilyMart - 204C Nguyễn Văn Hưởng",
        "phone": null,
        "email": null,
        "opening_hours": null,
        "is_active": true,
        "rating": 3.0,
        "latitude": 10.81372265102789, 
        "longitude": 106.73273959636465
    },
    {
        "name": "Bách hóa XANH 258 Chợ Lớn",
        "phone": "(019) 0019 08",
        "email": null,
        "opening_hours": "06:30–21:30 (Thứ Hai-Chủ Nhật)",
        "is_active": true,
        "rating": 4.3,
        "latitude": 10.744911018888205, 
        "longitude": 106.62845086567992
    },
    {
        "name": "Bách hóa XANH 43A Tân Hòa Đông",
        "phone": "(019) 0019 08",
        "email": null,
        "opening_hours": "06:30–21:30 (Thứ Hai-Chủ Nhật)",
        "is_active": true,
        "rating": 4.2,
        "latitude": 10.757154756681755, 
        "longitude": 106.63180106937737
    },
    {
        "name": "7-Eleven Đại Học Tôn Đức Thắng",
        "phone": "(035) 2167 711",
        "email": "cskh@7-eleven.vn",
        "opening_hours": "Mở cửa cả ngày (Thứ Hai-Chủ Nhật)",
        "is_active": true,
        "rating": 4.7,
        "latitude": 10.730696125348608, 
        "longitude": 106.69790409636396
    },
    {
        "name": "7-Eleven VNG Campus",
        "phone": "(036) 8999 711",
        "email": "cskh@7-eleven.vn",
        "opening_hours": "Mở cửa cả ngày (Thứ Hai-Thứ Sáu), 07:00–02:00 (Thứ Bảy), 07:00–00:00 (Chủ Nhật)",
        "is_active": true,
        "rating": 4.6,
        "latitude": 10.758470832202601, 
        "longitude": 106.7456434135549
    },
    {
        "name": "FamilyMart - 307A Nguyễn Thị Nhỏ",
        "phone": null,
        "email": null,
        "opening_hours": "Mở cửa cả ngày (Thứ Hai-Chủ Nhật)",
        "is_active": true,
        "rating": 2.5,
        "latitude": 10.757783553312592, 
        "longitude": 106.65098153869312
    }
]